[{"OBJECT_NAME":"JILIN-1 GAOFEN 3D04","OBJECT_ID":"2022-046B","EPOCH":"2026-03-09T17:36:07.679808","MEAN_MOTION":15.76354751,"ECCENTRICITY":0.00015268,"INCLINATION":97.4899,"RA_OF_ASC_NODE":183.6662,"ARG_OF_PERICENTER":245.0805,"MEAN_ANOMALY":115.0302,"EPHEMERIS_TYPE":0,"CLASSIFICATION_TYPE":"U","NORAD_CAT_ID":52389,"ELEMENT_SET_NO":999,"REV_AT_EPOCH":21487,"BSTAR":0.001117663,"MEAN_MOTION_DOT":0.00178961,"MEAN_MOTION_DDOT":0},{"OBJECT_NAME":"STARLINK-36748","OBJECT_ID":"2026-025A","EPOCH":"2026-03-09T20:37:47.265312","MEAN_MOTION":15.75209595,"ECCENTRICITY":0.00012272,"INCLINATION":97.2833,"RA_OF_ASC_NODE":180.3994,"ARG_OF_PERICENTER":85.0065,"MEAN_ANOMALY":275.1341,"EPHEMERIS_TYPE":0,"CLASSIFICATION_TYPE":"U","NORAD_CAT_ID":67693,"ELEMENT_SET_NO":999,"REV_AT_EPOCH":596,"BSTAR":0.0025869375,"MEAN_MOTION_DOT":0.00404959,"MEAN_MOTION_DDOT":0}]
