JILIN-1 GAOFEN 3D04     
1 52389U 22046B   26068.73342222  .00178961  00000+0  11177-2 0  9998
2 52389  97.4899 183.6662 0001527 245.0805 115.0302 15.76354751214874
STARLINK-36748          
1 67693U 26025A   26068.85957483  .00404959  00000+0  25869-2 0  9999
2 67693  97.2833 180.3994 0001227  85.0065 275.1341 15.75209595  5966
